{
    "links": {
        "self": "http://www.neowsapp.com/rest/v1/neo/54054447?api_key=iIulBulltgU6a56xZRHN4H3l9WmuAYTsLGpBGhQ2"
    },
    "id": "54054447",
    "neo_reference_id": "54054447",
    "name": "(2020 SM)",
    "designation": "2020 SM",
    "nasa_jpl_url": "http://ssd.jpl.nasa.gov/sbdb.cgi?sstr=54054447",
    "absolute_magnitude_h": 23.895,
    "estimated_diameter": {
        "kilometers": {
            "estimated_diameter_min": 0.0442135082,
            "estimated_diameter_max": 0.09886441
        },
        "meters": {
            "estimated_diameter_min": 44.2135082468,
            "estimated_diameter_max": 98.8644099637
        },
        "miles": {
            "estimated_diameter_min": 0.0274729918,
            "estimated_diameter_max": 0.0614314773
        },
        "feet": {
            "estimated_diameter_min": 145.0574463966,
            "estimated_diameter_max": 324.3583107852
        }
    },
    "is_potentially_hazardous_asteroid": false,
    "close_approach_data": [
        {
            "close_approach_date": "2020-09-25",
            "close_approach_date_full": "2020-Sep-25 20:36",
            "epoch_date_close_approach": 1601066160000,
            "relative_velocity": {
                "kilometers_per_second": "18.4257876081",
                "kilometers_per_hour": "66332.8353890642",
                "miles_per_hour": "41216.6443004994"
            },
            "miss_distance": {
                "astronomical": "0.0399919331",
                "lunar": "15.5568619759",
                "kilometers": "5982708.008942497",
                "miles": "3717482.3748085786"
            },
            "orbiting_body": "Earth"
        }
    ],
    "orbital_data": {
        "orbit_id": "4",
        "orbit_determination_date": "2020-09-23 07:12:12",
        "first_observation_date": "2020-09-17",
        "last_observation_date": "2020-09-23",
        "data_arc_in_days": 6,
        "observations_used": 47,
        "orbit_uncertainty": "8",
        "minimum_orbit_intersection": ".00418355",
        "jupiter_tisserand_invariant": "4.555",
        "epoch_osculation": "2459112.5",
        "eccentricity": ".4942715671102443",
        "semi_major_axis": "1.402247725578532",
        "inclination": "20.69309921545936",
        "ascending_node_longitude": "184.4725077702123",
        "orbital_period": "606.5066168261545",
        "perihelion_distance": ".7091565447800555",
        "perihelion_argument": "264.1710663918524",
        "aphelion_distance": "2.095338906377009",
        "perihelion_time": "2459171.669127535928",
        "mean_anomaly": "324.8793841287314",
        "mean_motion": ".5935631863076414",
        "equinox": "J2000",
        "orbit_class": {
            "orbit_class_type": "APO",
            "orbit_class_description": "Near-Earth asteroid orbits which cross the Earth’s orbit similar to that of 1862 Apollo",
            "orbit_class_range": "a (semi-major axis) > 1.0 AU; q (perihelion) < 1.017 AU"
        }
    },
    "is_sentry_object": false
}